Plz,Ort,Longitude,Latitude
5000,Aarau,47.3833,8.05
5001,Aarau,47.3833,8.05
5004,Aarau,47.3833,8.05
4663,Aarburg,47.3167,7.9
5645,Aettenschwil,47.1833,8.36667
5628,Aristau,47.2833,8.36667
5105,Auenstein,47.4167,8.13333
5644,Auw,47.2167,8.36667
5400,Baden,47.4667,8.3
5401,Baden,47.4667,8.3
5402,Baden,47.4667,8.3
5403,Baden,47.4667,8.3
5404,Baden,47.4667,8.3
5405,Baden,47.4667,8.3
5406,Baden,47.4667,8.3
8965,Berikon,47.35,8.38333
5242,Birr,47.4333,8.2
5708,Birrwil,47.2833,8.2
5706,Boniswil,47.3167,8.18333
4814,Bottenwil,47.2833,8
5315,Böttstein,47.55,8.21667
5076,Bözen,47.4833,8.08333
4805,Brittnau,47.25,7.95
5632,Buttwil,47.2667,8.33333
5026,Densbüren,47.45,8.05
6042,Dietwil,47.15,8.4
5605,Dottikon,47.3833,8.23333
5312,Döttingen,47.5667,8.25
5724,Dürrenäsch,47.3333,8.15
5078,Effingen,47.4833,8.11667
5445,Eggenwil,47.3667,8.33333
5704,Egliswil,47.35,8.18333
5074,Eiken,47.5333,7.98333
5304,Endingen,47.5333,8.28333
5018,Erlinsbach,47.4,8
5275,Etzgen,47.5667,8.1
5615,Fahrwangen,47.3,8.23333
5070,Frick,47.5,8.01667
5412,Gebenstorf,47.4667,8.23333
5073,Gipf-Oberfrick,47.5,8
5728,Gontenschwil,47.2667,8.13333
5722,Gränichen,47.35,8.1
5245,Habsburg,47.4667,8.18333
5607,Hägglingen,47.3833,8.25
5705,Hallwil,47.3167,8.18333
5604,Hendschiken,47.3833,8.21667
5075,Hornussen,47.5,8.08333
5083,Ittenthal,47.5167,8.05
8916,Jonen,47.3,8.4
4303,Kaiseraugst,47.5333,7.71667
5082,Kaisten,47.5333,8.03333
8956,Killwangen,47.4333,8.35
5313,Klingnau,47.5833,8.25
5322,Koblenz,47.6167,8.23333
5742,Kölliken,47.3333,8.01667
5444,Künten,47.3833,8.31667
5024,Küttigen,47.4167,8.05
5080,Laufenburg,47.5667,8.05
5325,Leibstadt,47.5833,8.18333
5600,Lenzburg,47.3833,8.18333
5725,Leutwil,47.3167,8.16667
4312,Magden,47.5333,7.8
5616,Meisterschwanden,47.3,8.23333
5507,Mellingen,47.4167,8.26667
5737,Menziken,47.25,8.18333
5634,Merenschwand,47.25,8.36667
4313,Möhlin,47.55,7.85
5054,Moosleerau,47.2667,8.05
5037,Muhen,47.3333,8.05
5642,Mühlau,47.2333,8.38333
4322,Mumpf,47.55,7.91667
4853,Murgenthal,47.2667,7.81667
5432,Neuenhof,47.45,8.31667
5702,Niederlenz,47.4,8.18333
5443,Niederrohrdorf,47.4167,8.3
5036,Oberentfelden,47.35,8.03333
8917,Oberlunkhofen,47.3,8.38333
5647,Oberrüti,47.1667,8.38333
4665,Oftringen,47.3167,7.91667
5504,Othmarsingen,47.4,8.21667
4310,Rheinfelden,47.55,7.78333
4852,Rothrist,47.3,7.9
8964,Rudolfstetten,47.3667,8.38333
5102,Rupperswil,47.4167,8.13333
5745,Safenwil,47.3167,7.98333
5614,Sarmenstorf,47.3167,8.25
5503,Schafisheim,47.3833,8.13333
5116,Schinznach Bad,47.4333,8.16667
5107,Schinznach Dorf,47.45,8.13333
5044,Schlossrued,47.2833,8.08333
5040,Schöftland,47.3,8.05
5326,Schwaderloch,47.5833,8.13333
5707,Seengen,47.3333,8.21667
5703,Seon,47.35,8.15
5462,Siglistorf,47.55,8.36667
5643,Sins,47.2,8.38333
8957,Spreitenbach,47.4167,8.36667
5053,Staffelbach,47.2667,8.05
5603,Staufen,47.3833,8.16667
5233,Stilli,47.5167,8.2
4802,Strengelbach,47.2667,7.91667
5034,Suhr,47.3667,8.08333
5306,Tegerfelden,47.5667,8.28333
5300,Turgi,47.4833,8.25
4813,Uerkheim,47.3,8.01667
5424,Unterehrendingen,47.5,8.33333
5726,Unterkulm,47.3167,8.11667
8918,Unterlunkhofen,47.3167,8.38333
5417,Untersiggenthal,47.5,8.25
5234,Villigen,47.5167,8.21667
5612,Villmergen,47.35,8.25
5213,Villnachern,47.4667,8.16667
4803,Vordemwald,47.2667,7.88333
5622,Waltenschwil,47.3333,8.3
4317,Wegenstetten,47.5,7.93333
5430,Wettingen,47.4667,8.31667
5103,Wildegg,47.3833,8.16667
5210,Windisch,47.4667,8.23333
5064,Wittnau,47.4833,7.98333
5063,Wölflinswil,47.45,7.98333
5303,Würenlingen,47.5333,8.26667
5436,Würenlos,47.45,8.36667
5079,Zeihen,47.4667,8.08333
4800,Zofingen,47.2833,7.93333
5330,Zurzach,47.6,8.3
4315,Zuzgen,47.5333,7.9
9050,Appenzell,47.3333,9.4
9108,Gonten,47.3333,9.33333
9413,Oberegg,47.4167,9.55
9057,Weissbad,47.3167,9.43333
9055,Bühler,47.3833,9.41667
9056,Gais,47.3667,9.45
9410,Heiden,47.4333,9.53333
9100,Herisau,47.4,9.26667
9101,Herisau,47.4,9.26667
9102,Herisau,47.4,9.26667
9064,Hundwil,47.3667,9.31667
9038,Rehetobel,47.4167,9.48333
9105,Schönengrund,47.3167,9.23333
9103,Schwellbrunn,47.3667,9.25
9042,Speicher,47.4132,9.44277
9043,Trogen,47.4,9.46667
9107,Urnäsch,47.3167,9.28333
9104,Waldstatt,47.3667,9.28333
9428,Walzenhausen,47.45,9.6
9107,Zürchersmühle,47.3333,9.3
3270,Aarberg,47.05,7.28333
4912,Aarwangen,47.2333,7.75
1657,Abländschen,46.5667,7.3
3715,Adelboden,46.4833,7.56667
3536,Aeschau,46.9,7.76667
3183,Albligen,46.85,7.31667
3473,Alchenstorf,47.1167,7.63333
3633,Amsoldingen,46.7167,7.58333
3296,Arch,47.15,7.41667
4536,Attiswil,47.2333,7.6
3855,Axalp,46.7,8.03333
4913,Bannwil,47.2333,7.71667
3552,Bärau,46.9333,7.81667
3315,Bätterkinden,47.1167,7.53333
3803,Beatenberg,46.7,7.78333
2713,Bellelay,47.2667,7.16667
2564,Bellmund,47.1167,7.23333
3123,Belp,46.8833,7.5
3124,Belpberg,46.8667,7.51667
3000,Bern,46.9167,7.46667
3001,Bern,46.9167,7.46667
3003,Bern,46.9167,7.46667
3004,Bern,46.9167,7.46667
3005,Bern,46.9167,7.46667
3006,Bern,46.9167,7.46667
3007,Bern,46.9167,7.46667
3008,Bern,46.9167,7.46667
3010,Bern,46.9167,7.46667
3011,Bern,46.9167,7.46667
3012,Bern,46.9167,7.46667
3013,Bern,46.9167,7.46667
3014,Bern,46.9167,7.46667
3015,Bern,46.9167,7.46667
3018,Bern,46.9167,7.46667
3019,Bern,46.9167,7.46667
3020,Bern,46.9167,7.46667
3024,Bern,46.9167,7.46667
3027,Bern,46.9167,7.46667
3030,Bern,46.9167,7.46667
3040,Bern,46.9167,7.46667
2735,Bévilard,47.2333,7.28333
3513,Bigenthal,46.95,7.61667
3507,Biglen,46.9333,7.61667
3771,Blankenburg,46.5333,7.38333
3638,Blumenstein,46.7333,7.53333
3067,Boll,46.95,7.55
3065,Bolligen,46.9667,7.48333
3766,Boltigen,46.6333,7.38333
3533,Bowil,46.9,7.68333
3671,Brenzikofen,46.8167,7.61667
3856,Brienzwiler,46.75,8.1
3237,Brüttelen,47.0167,7.15
6197,Bumbach,46.8,7.9
3294,Büren an der Aare,47.1333,7.36667
3400,Burgdorf,47.05,7.61667
3401,Burgdorf,47.05,7.61667
3402,Burgdorf,47.05,7.61667
3664,Burgistein,46.7833,7.48333
4922,Bützberg,47.2167,7.75
2606,Corgémont,47.1833,7.13333
2738,Court,47.2333,7.33333
2608,Courtelary,47.1833,7.06667
2746,Crémines,47.2667,7.43333
3707,Därligen,46.6667,7.8
3763,Därstetten,46.65,7.48333
3754,Diemtigen,46.6333,7.56667
2517,Diesse,47.1167,7.11667
3465,Dürrenroth,47.0833,7.78333
3537,Eggiwil,46.8833,7.78333
3646,Einigen,46.7167,7.63333
3543,Emmenmatt,46.95,7.75
4952,Eriswil,47.0833,7.85
3619,Eriz,46.7833,7.76667
3235,Erlach,47.0333,7.1
3762,Erlenbach im Simmental,46.6667,7.55
3423,Ersigen,47.0833,7.58333
2533,Evilard,47.15,7.23333
3705,Faulensee,46.6667,7.71667
3784,Feutersoey,46.4167,7.26667
3312,Fraubrunnen,47.0833,7.51667
3202,Frauenkappelen,46.95,7.33333
3035,Frieswil,46.9833,7.26667
3714,Frutigen,46.5833,7.65
3863,Gadmen,46.7333,8.35
2076,Gals,47.0333,7.05
3236,Gampelen,47.0167,7.05
3115,Gerzensee,46.8167,7.55
3826,Gimmelwald,46.55,7.88333
4955,Gondiswil,47.1333,7.86667
3376,Graben,46.8,7.4
2745,Grandval,47.2833,7.41667
3757,Grimmialp,46.5667,7.48333
3818,Grindelwald,46.6167,8.05
3257,Grossaffoltern,47.0667,7.35
3780,Gstaad,46.4667,7.28333
3158,Guggisberg,46.7667,7.33333
3073,Gümligen,46.9667,7.5
3205,Gümmenen,46.9333,7.23333
3654,Gunten,46.7167,7.7
3864,Guttannen,46.6667,8.28333
3804,Habkern,46.7167,7.85
2575,Hagneck,47.0667,7.18333
3415,Hasle-Rüegsau,47.0167,7.63333
3625,Heiligenschwendi,46.75,7.68333
3627,Heimberg,46.8,7.6
3615,Heimenschwand,46.8167,7.7
3412,Heimiswil,47.05,7.65
3475,Hermiswil,46.8333,7.46667
3360,Herzogenbuchsee,47.1833,7.7
3652,Hilterfingen,46.7333,7.65
3324,Hindelbank,47.0333,7.53333
3032,Hinterkappelen,46.9667,7.38333
3702,Hondrich,46.6667,7.66667
3626,Hünibach,46.75,7.65
4950,Huttwil,47.1167,7.85
3862,Innertkirchen,46.7,8.21667
3232,Ins,47.0167,7.1
3800,Interlaken,46.6833,7.85
3807,Iseltwald,46.7,7.95
3822,Isenfluh,46.6167,7.88333
3303,Jegenstorf,47.05,7.5
3283,Kallnach,47.0167,7.23333
3716,Kandergrund,46.55,7.66667
3718,Kandersteg,46.4833,7.66667
3273,Kappelen,47.05,7.25
3122,Kehrsatz,46.9,7.46667
3309,Kernenried,47.0667,7.55
3723,Kiental,46.5667,7.75
3629,Kiesen,46.8167,7.56667
3038,Kirchlindach,47,7.41667
4936,Kleindietwil,47.1333,7.78333
3801,Kleine Scheidegg,46.5833,7.93333
3098,Köniz,46.9167,7.41667
3510,Konolfingen,46.8833,7.63333
3425,Koppigen,47.1333,7.6
3704,Krattigen,46.65,7.73333
3326,Krauchthal,47.0167,7.56667
3179,Kriechenwil,46.9,7.23333
2333,La Ferrière,47.1333,6.88333
2604,La Heutte,47.1833,7.21667
2520,La Neuveville,47.0667,7.1
2516,Lamboing,47.1167,7.15
4900,Langenthal,47.2167,7.78333
4901,Langenthal,47.2167,7.78333
4902,Langenthal,47.2167,7.78333
4903,Langenthal,47.2167,7.78333
3438,Lauperswil,46.95,7.73333
3822,Lauterbrunnen,46.6,7.9
3706,Leissigen,46.65,7.76667
3297,Leuzigen,47.1667,7.45
3097,Liebefeld,46.9333,7.43333
2514,Ligerz,47.0833,7.15
3673,Linden,46.85,7.68333
4932,Lotzwil,47.1833,7.78333
3816,Lütschental,46.6333,7.93333
3250,Lyss,47.0667,7.3
3421,Lyssach,47.0667,7.58333
4934,Madiswil,47.1667,7.78333
2735,Malleray,47.2333,7.26667
2554,Meinisberg,47.1667,7.35
3860,Meiringen,46.7333,8.18333
4917,Melchnau,47.1833,7.83333
3658,Merligen,46.7,7.73333
2572,Mörigen,47.0833,7.21667
2740,Moutier,47.2833,7.36667
3203,Mühleberg,46.95,7.25
3127,Mühlethurnen,46.8167,7.5
3053,Münchenbuchsee,47.0167,7.45
3110,Münsingen,46.8833,7.56667
3825,Mürren,46.5667,7.88333
3863,Nessental,46.7167,8.3
3176,Neuenegg,46.8833,7.3
2560,Nidau,47.1167,7.23333
4704,Niederbipp,47.2667,7.68333
3145,Niederscherli,46.8833,7.38333
3114,Niederwichtrach,46.85,7.58333
3712,Niesen Kulm,46.6333,7.65
2518,Nods,47.1167,7.08333
3096,Oberbalm,46.8667,7.4
4538,Oberbipp,47.25,7.66667
3414,Oberburg,47.0333,7.61667
3672,Oberdiessbach,46.8333,7.95
3363,Oberönz,47.1667,7.7
3632,Oberstocken,46.7167,7.55
3367,Ochlenberg,47.15,7.73333
3753,Oey,46.6667,7.58333
2552,Orpund,47.1333,7.3
2534,Orvin,47.1667,7.2
3072,Ostermundigen,46.95,7.48333
2742,Perrefitte,47.2833,7.35
2603,Péry,47.2,7.25
2542,Pieterlen,47.1833,7.33333
2515,PrÃªles,47.2,7.25
3439,Ranflüh,46.9833,7.75
2732,Reconvilier,47.2333,7.21667
3647,Reutigen,46.7,7.61667
3078,Richigen,46.9,7.58333
3159,Riedstätt,46.7833,7.31667
3156,Riffenmatt,46.7667,7.35
3132,Riggisberg,46.8,7.46667
4938,Rohrbach,47.1333,7.8
3204,Rosshäusern,46.9167,7.26667
3113,Rubigen,46.9,7.53333
3437,Rüderswil,46.9833,7.73333
3088,Rüeggisberg,46.8167,7.43333
3792,Saanen,46.4833,7.25
3777,Saanenmöser,46.5167,7.3
2732,Saicourt,47.25,7.2
1738,Sangernboden,46.7167,7.35
3044,Säriswil,46.9833,7.33333
3813,Saxeten,46.6333,7.83333
6197,Schangnau,46.8333,7.85
2827,Schelten,47.3333,7.55
3322,Schönbühl,47.0167,7.5
3778,Schönried,46.5,7.28333
3535,Schüpbach,46.9333,7.73333
3054,Schüpfen,47.0333,7.38333
3150,Schwarzenburg,46.8333,7.33333
3616,Schwarzenegg,46.8,7.71667
3365,Seeberg,47.15,7.66667
3662,Seftigen,46.7833,7.53333
3534,Signau,46.9167,7.71667
3655,Sigriswil,46.7167,7.7
2615,Sonvilier,47.1333,6.95
2716,Sornetan,47.2667,7.21667
3700,Spiez,46.6833,7.68333
3824,Stechelberg,46.55,7.9
3612,Steffisburg,46.7833,7.63333
3613,Steffisburg,46.7833,7.63333
3066,Stettlen,46.95,7.53333
3262,Suberg,47.05,7.33333
3454,Sumiswald,47.0333,7.73333
3800,Sundlauenen,46.6833,7.78333
2575,Täuffelen,47.0667,7.2
2710,Tavannes,47.2167,7.2
3634,Thierachern,46.75,7.56667
3174,Thörishaus,46.9,7.35
3600,Thun,46.75,7.61667
3601,Thun,46.75,7.61667
3602,Thun,46.75,7.61667
3603,Thun,46.75,7.61667
3604,Thun,46.75,7.61667
3605,Thun,46.75,7.61667
3606,Thun,46.75,7.61667
3607,Thun,46.75,7.61667
3608,Thun,46.75,7.61667
4922,Thunstetten,47.2,7.58333
3125,Toffen,46.8667,7.48333
3456,Trachselwald,47.0167,7.73333
2720,Tramelan,47.2333,7.1
3083,Trimstein,46.9,7.56667
3556,Trub,46.95,7.88333
3555,Trubschachen,46.9167,7.83333
2513,Twann,47.1,7.15
3661,Uetendorf,46.7667,7.56667
3043,Uettligen,46.9833,7.38333
3800,Unterseen,46.6833,7.85
4937,Ursenbach,47.1333,7.76667
3322,Urtenen,47.0333,7.48333
3628,Uttigen,46.7833,7.56667
3427,Utzenstorf,47.1333,7.55
2537,Vauffelin,47.1833,7.28333
2613,Villeret,47.1667,7.03333
3084,Wabern,46.9333,7.48333
3512,Walkringen,46.95,7.61667
3380,Wangen an der Aare,47.2333,7.65
3665,Wattenwil,46.7667,7.51667
3766,Weissenbach,46.6167,7.38333
3764,Weissenburg,46.65,7.46667
3823,Wengen,46.6,7.91667
3114,Wichtrach,46.85,7.58333
4537,Wiedlisbach,47.25,7.65
3812,Wilderswil,46.6667,7.85
3207,Wileroltigen,46.9667,7.23333
3752,Wimmis,46.6833,7.63333
3076,Worb,46.9333,7.56667
3252,Worben,47.1,7.28333
3048,Worblaufen,46.9667,7.46667
4923,Wynau,47.2667,7.8
3472,Wynigen,47.1,7.66667
4954,Wyssachen,47.0833,7.81667
3532,Zäziwil,46.9,7.65
3086,Zimmerwald,46.8667,7.46667
3436,Zollbrück,46.9667,7.75
3052,Zollikofen,46.9833,7.46667
3815,Zweilütschinen,46.6333,7.9
3770,Zweisimmen,46.55,7.36667
4123,Allschwil,47.55,7.53333
4422,Arisdorf,47.5167,7.76667
4144,Arlesheim,47.4833,7.61667
4000,Basel,47.5667,7.6
4001,Basel,47.5667,7.6
4002,Basel,47.5667,7.6
4003,Basel,47.5667,7.6
4004,Basel,47.5667,7.6
4005,Basel,47.5667,7.6
4006,Basel,47.5667,7.6
4007,Basel,47.5667,7.6
4008,Basel,47.5667,7.6
4009,Basel,47.5667,7.6
4010,Basel,47.5667,7.6
4011,Basel,47.5667,7.6
4012,Basel,47.5667,7.6
4013,Basel,47.5667,7.6
4015,Basel,47.5667,7.6
4016,Basel,47.5667,7.6
4017,Basel,47.5667,7.6
4018,Basel,47.5667,7.6
4019,Basel,47.5667,7.6
4020,Basel,47.5667,7.6
4023,Basel,47.5667,7.6
4024,Basel,47.5667,7.6
4025,Basel,47.5667,7.6
4027,Basel,47.5667,7.6
4028,Basel,47.5667,7.6
4030,Basel,47.5667,7.6
4031,Basel,47.5667,7.6
4032,Basel,47.5667,7.6
4039,Basel,47.5667,7.6
4040,Basel,47.5667,7.6
4051,Basel,47.5667,7.6
4052,Basel,47.5667,7.6
4053,Basel,47.5667,7.6
4054,Basel,47.5667,7.6
4055,Basel,47.5667,7.6
4056,Basel,47.5667,7.6
4057,Basel,47.5667,7.6
4058,Basel,47.5667,7.6
4059,Basel,47.5667,7.6
4070,Basel,47.5667,7.6
4080,Basel,47.5667,7.6
4091,Basel,47.5667,7.6
4102,Binningen,47.5333,7.56667
4127,Birsfelden,47.55,7.61667
4223,Blauen,47.45,7.51667
4103,Bottmingen,47.5167,7.56667
4207,Bretzwil,47.4,7.65
4225,Brislach,47.4167,7.53333
4416,Bubendorf,47.45,7.73333
4463,Buus,47.5167,7.86667
4457,Diegten,47.4167,7.8
4458,Eptingen,47.3833,7.81667
4107,Ettingen,47.4833,7.55
4402,Frenkendorf,47.5,7.71667
4414,Füllinsdorf,47.5,7.75
4460,Gelterkinden,47.4667,7.85
4203,Grellingen,47.4333,7.58333
4465,Hemmiken,47.4667,7.86667
4434,Hölstein,47.4167,7.76667
4438,Langenbruck,47.35,7.75
4448,Läufelfingen,47.4,7.85
4242,Laufen,47.4167,7.5
4415,Lausen,47.4667,7.75
4253,Liesberg,47.4,7.43333
4410,Liestal,47.4667,7.73333
4464,Maisprach,47.5167,7.83333
4142,Münchenstein,47.5167,7.61667
4132,Muttenz,47.5167,7.65
4466,Ormalingen,47.4667,7.86667
4148,Pfeffingen,47.45,7.58333
4133,Pratteln,47.5167,7.68333
4418,Reigoldswil,47.4,7.68333
4244,Röschenz,47.4333,7.45
4497,Rünenberg,47.4333,7.88333
4124,Schönenbuch,47.5333,7.48333
4411,Seltisberg,47.45,7.71667
4450,Sissach,47.4667,7.8
4492,Tecknau,47.45,7.88333
4106,Therwil,47.5,7.55
4425,Titterten,47.4,7.71667
4437,Waldenburg,47.3833,7.75
4495,Zeglingen,47.4167,7.9
4455,Zunzgen,47.4333,7.8
4222,Zwingen,47.4333,7.51667
4126,Bettingen,47.6,7.65
1669,Albeuve,46.5167,7.06667
1732,Arconciel,46.75,7.11667
1616,Attalens,46.5167,6.85
1484,Aumont,46.8,6.85
1742,Autigny,46.7333,7.01667
1754,Avry-sur-Matran,46.7833,7.06667
1783,BarberÃªche,46.8667,7.16667
1782,Belfaux,46.8167,7.1
3178,Bösingen,46.9,7.21667
1636,Broc,46.6167,7.1
1630,Bulle,46.6167,7.06667
1631,Bulle,46.6167,7.06667
1553,ChÃ¢tonnaye,46.75,6.93333
1529,Cheiry,46.75,6.83333
1468,Cheyres,46.8167,6.78333
1792,Cordast,46.8667,7.15
1720,Corminboeuf,46.8,7.1
1796,Courgevaux,46.9,7.1
1795,Courlevon,46.8833,7.1
1784,Courtepin,46.85,7.2
1721,Courtion,46.8667,7.06667
1564,Domdidier,46.8667,7.01667
3186,Düdingen,46.85,7.2
1646,Echarlens,46.65,7.06667
1730,Ecuvillens,46.75,7.08333
1667,Enney,46.5667,7.08333
1665,Estavannens,46.5667,7.1
1470,Estavayer-le-Lac,46.85,6.85
1726,Farvagny-le-Petit,46.7333,7.08333
3175,Flamatt,46.8833,7.3
3284,Fräschels,46.9833,7.21667
1700,Fribourg,46.8,7.15
1701,Fribourg,46.8,7.15
1702,Fribourg,46.8,7.15
1703,Fribourg,46.8,7.15
1704,Fribourg,46.8,7.15
1705,Fribourg,46.8,7.15
1706,Fribourg,46.8,7.15
1707,Fribourg,46.8,7.15
1708,Fribourg,46.8,7.15
1709,Fribourg,46.8,7.15
3285,Galmiz,46.95,7.15
1735,Giffers,46.7667,7.21667
1775,Grandsivaz,46.7833,6.98333
1666,Grandvillard,46.55,7.1
1772,Grolley,46.8333,7.08333
1663,Gruyères,46.5833,7.08333
1648,Hauteville,46.6667,7.11667
1714,Heitenried,46.8333,7.3
1656,Im Fang,46.6,7.25
1656,Jaun,46.6,7.28333
1793,Jeuss,46.9,7.16667
3210,Kerzers,46.9667,7.2
1635,La Tour-de-TrÃªme,46.6167,7.06667
1645,Le Bry,46.7,7.08333
1611,Le CrÃªt-près-Semsales,46.6,6.93333
1773,Léchelles,46.8333,7.01667
1669,Lessoc,46.5,7.06667
3213,Liebistorf,46.9167,7.2
3215,Lurtigen,46.9167,7.16667
1775,Mannens,46.8,6.96667
1633,Marsens,46.65,7.06667
1776,Montagny-la-Ville,46.8167,6.98333
1669,Montbovon,46.4833,7.05
3280,Murten,46.9333,7.11667
1757,Noréaz,46.8,7.01667
1716,Oberschrot,46.7333,7.26667
1716,Plaffeien,46.75,7.28333
1737,Plasselb,46.7333,7.25
1772,Ponthaux,46.8167,7.03333
1699,Porsel,46.6,6.86667
1568,Portalban,46.9167,6.95
1718,Rechthalten,46.7667,7.25
1632,Riaz,46.6333,7.06667
1673,Rue,46.6167,6.81667
1626,Rueyres-Treyfayes,46.65,6.95
1716,Schwarzsee,46.6667,7.28333
1623,Semsales,46.5833,6.93333
1678,Siviriez,46.6667,6.86667
1642,Sorens,46.6833,7.05
1786,Sugiez,46.9667,7.1
1712,Tafers,46.8,7.21667
1626,Treyfayes,46.6667,6.95
1733,Treyvaux,46.7333,7.13333
3182,Ueberstorf,46.8667,7.3
1675,Vauderens,46.6167,6.85
1627,Vaulruz,46.6167,7
1695,Villarsel-le-Gibloux,46.7167,7.01667
1694,Villarsiviriaux,46.7,7.01667
1752,Villars-sur-GlÃ¢ne,46.8,7.11667
1651,Villarvolard,46.65,7.1
1628,Vuadens,46.6167,7.03333
3206,Wallenbuch,46.9167,7.21667
1784,Wallenried,46.8667,7.11667
3184,Wünnewil,46.8833,7.26667
1719,Zumholz,46.75,7.3
1219,AÃ¯re,46.2,6.13333
1247,Anières,46.2833,6.21667
1293,Bellevue,46.2667,6.15
1233,Bernex,46.1833,6.08333
1236,Cartigny,46.1833,6.01667
1298,Céligny,46.35,6.2
1292,Chambésy,46.25,6.13333
1284,Chancy,46.15,5.96667
1219,ChÃ¢telaine,46.2,6.11667
1224,ChÃªne-Bougeries,46.2,6.16667
1225,ChÃªne-Bourg,46.2,6.2
1216,Cointrin,46.2167,6.11667
1245,Collonge-Bellerive,46.25,6.18333
1223,Cologny,46.2167,6.2
1232,Confignon,46.1833,6.08333
1283,Dardagny,46.2,6
1200,Genève,46.2,6.16667
1201,Genève,46.2,6.16667
1202,Genève,46.2,6.16667
1203,Genève,46.2,6.16667
1204,Genève,46.2,6.16667
1205,Genève,46.2,6.16667
1206,Genève,46.2,6.16667
1207,Genève,46.2,6.16667
1208,Genève,46.2,6.16667
1209,Genève,46.2,6.16667
1248,Hermance,46.3,6.23333
1254,Jussy,46.25,6.28333
1283,La Plaine,46.1833,6
1227,La Praille,46.1833,6.11667
1218,Le Grand-Saconnex,46.2333,6.13333
1227,Les Acacias,46.1833,6.13333
1252,Meinier,46.2333,6.23333
1217,Meyrin,46.2167,6.06667
1213,Onex,46.1833,6.1
1228,Plan-les-Ouates,46.1667,6.11667
1243,Presinge,46.2333,6.25
1241,Puplinge,46.2,6.23333
1281,Russin,46.1833,6.01667
1242,Satigny,46.2167,6.03333
1286,Soral,46.1333,6.05
1226,Thônex,46.1833,6.16667
1214,Vernier,46.2167,6.08333
1290,Versoix,46.2667,6.16667
1222,Vésenaz,46.2333,6.2
1255,Veyrier,46.1833,6.2
8777,Betschwanden,46.95,9.01667
8865,Bilten,47.15,9.01667
8784,Braunwald,46.9333,8.98333
8767,Elm,46.9167,9.16667
8765,Engi,46.9833,9.15
8755,Ennenda,47.0333,9.08333
8757,Filzbach,47.1167,9.11667
8750,Glarus,47.0333,9.06667
8775,Hätzingen,46.95,9.03333
8750,Klöntal,47.0333,8.96667
8774,Leuggelbach,46.9667,9.05
8783,Linthal,46.9167,9
8775,Luchsingen,46.9667,9.03333
8766,Matt,46.9667,9.16667
8753,Mollis,47.0833,9.08333
8874,Mühlehorn,47.1167,9.16667
8752,Näfels,47.1,9.06667
8754,Netstal,47.05,9.05
8759,Netstal,47.05,9.05
8772,Nidfurn,46.9833,9.05
8867,Niederurnen,47.1167,9.05
8758,Obstalden,47.1167,9.15
8750,Riedern,46.95,7.36667
8762,Sool,46.9833,9.08333
8866,Ziegelbrücke,47.1167,9.05
7710,Alp Grüm,46.3833,10.0333
7492,Alvaneu Dorf,46.6833,9.63333
7451,Alvaschein,46.6833,9.55
7440,Andeer,46.6,9.43333
7546,Ardez,46.7833,10.2
7050,Arosa,46.7833,9.66667
6543,Arvigo,46.3,9.11667
7245,Ascharina,46.95,9.8
6547,Augio,46.3667,9.11667
7444,Ausserferrera,46.55,9.43333
7457,Bivio,46.4667,9.65
7402,Bonaduz,46.8167,9.4
7604,Borgonovo,46.35,9.6
7527,Brail,46.65,10.0333
7743,Brusio,46.2667,10.1167
6542,Buseno,46.2667,9.11667
6558,Cabbiolo,46.3333,9.2
6557,Cama,46.2667,9.16667
7748,Campascio,46.25,10.1167
7744,Campocologno,46.2333,10.1333
7122,Carrera,46.8,9.3
7602,Casaccia,46.3833,9.66667
7608,Castasegna,46.3333,9.51667
7027,Castiel,46.85,9.6
6546,Cauco,46.3333,9.11667
7408,Cazis,46.7167,9.43333
7512,Champfèr,46.4667,9.8
7000,Chur,46.85,9.5
7001,Chur,46.85,9.5
7002,Chur,46.85,9.5
7004,Chur,46.85,9.5
7005,Chur,46.85,9.5
7006,Chur,46.85,9.5
7007,Chur,46.85,9.5
7075,Churwalden,46.7833,9.53333
7442,Clugin,46.6167,9.41667
7554,Crusch,46.8167,10.35
7452,Cunter,46.6167,9.6
7184,Curaglia,46.6833,8.86667
7163,Danis,46.75,9.05
7260,Davos Dorf,46.8167,9.83333
7270,Davos Platz,46.8167,9.83333
7112,Duvin,46.7167,9.21667
7153,Falera,46.8,9.21667
7215,Fanas,46.9833,9.65
7433,Fardün,46.6333,9.41667
7012,Felsberg,46.85,9.48333
7019,Fidaz,46.85,9.3
7235,Fideris,46.9167,9.73333
7477,Filisur,46.6667,9.68333
7306,Fläsch,47.0167,9.51667
7426,Flerden,46.7,9.4
7017,Flims Dorf,46.8333,9.28333
7018,Flims Waldhaus,46.8333,9.28333
7137,Flond,46.7667,9.15
7533,Fuldera,46.6167,10.3667
7232,Furna,46.9333,9.66667
7413,Fürstenaubruck,46.7167,9.45
6537,Grono,46.25,9.15
7214,Grüsch,46.9667,9.63333
7545,Guarda,46.7833,10.15
7023,Haldenstein,46.8833,9.51667
7438,Hinterrhein,46.5333,9.2
7206,Igis,46.95,9.58333
7130,Ilanz,46.7667,9.2
7445,Innerferrera,46.5167,9.43333
7233,Jenaz,46.9333,9.7
7307,Jenins,47,9.56667
7448,Juf,46.45,9.58333
7250,Klosters,46.8667,9.86667
7252,Klosters Dorf,46.8833,9.86667
7240,Küblis,46.9,9.75
7742,La Rösa,46.4,10.0667
7155,Ladir,46.8,9.2
7302,Landquart,46.95,9.56667
7207,Landquart Fabriken,46.95,9.56667
7057,Langwies,46.8333,9.7
7484,Latsch,46.6333,9.75
6549,Laura,46.2167,9.1
7543,Lavin,46.7667,10.1
7746,Le Prese,46.3,10.0833
6556,Leggia,46.2667,9.16667
6558,Lostallo,46.3,9.2
7534,Lü,46.6333,10.3667
7148,Lumbrein,46.6833,9.13333
7141,Luven,46.7667,9.18333
7242,Luzein,46.9167,9.75
7304,Maienfeld,47.0167,9.53333
7026,Maladers,46.8333,9.55
7074,Malix,46.8,9.53333
7516,Maloja,46.4,9.7
7456,Marmorera,46.4833,9.65
7560,Martina,46.8833,10.4667
7303,Mastrils,46.9667,9.53333
7433,Mathon,46.6333,9.4
7436,Medels im Rheinwald,46.5333,9.28333
6563,Mesocco,46.3833,9.23333
7743,Miralago,46.2833,10.1
7458,Mon,46.65,9.55
7250,Monbiel,46.8667,9.91667
7143,Morissen,46.7333,9.18333
7455,Mulegns,46.5167,9.61667
7537,Müstair,46.6333,10.4333
7431,Mutten,46.6667,9.48333
7437,Nufenen,46.5333,9.25
7243,Pany,46.9333,9.76667
7076,Parpan,46.7667,9.55
7417,Paspels,46.75,9.45
7029,Peist,46.8333,9.66667
7443,Pignia,46.6167,9.43333
7111,Pitasch,46.7167,9.21667
7185,Platta,46.65,8.85
7504,Pontresina,46.4833,9.9
7742,Poschiavo,46.3333,10.05
7063,Praden,46.8167,9.56667
7424,Präz,46.7333,9.4
7482,Preda,46.5833,9.76667
7606,Promontogno,46.3333,9.56667
7228,Pusserein,46.9833,9.7
7172,Rabius,46.7,8.95
7408,Realta,46.75,9.41667
7403,Rhäzüns,46.8,9.4
7128,Riein,46.7333,9.23333
7463,Riom,46.6167,9.58333
7415,Rodels,46.7333,9.43333
7454,Rona,46.55,9.61667
7430,Rongellen,46.6667,9.43333
6548,Rossa,46.3667,9.13333
7405,Rothenbrunnen,46.7667,9.41667
7189,Rueras,46.75,8.68333
7156,Rueun,46.7833,9.15
7154,Ruschein,46.7833,9.2
7107,Safien Platz,46.6833,9.3
7152,Sagogn,46.8,9.25
7462,Salouf,46.6333,9.58333
7503,Samedan,46.5333,9.86667
7423,Sarn,46.7333,9.4
7460,Savognin,46.6,9.6
7525,S-chanf,46.6167,9.98333
7412,Scharans,46.7167,9.46667
7419,Scheid,46.7833,9.45
7220,Schiers,46.9667,9.68333
7228,Schuders,46.9833,9.73333
7550,Scuol,46.8,10.3
7188,Sedrun,46.6833,8.78333
7212,Seewis Dorf,46.9833,9.63333
6545,Selma,46.3167,9.11667
7554,Sent,46.8167,10.3333
7249,Serneus,46.8833,9.83333
7127,Sevgein,46.7667,9.21667
7411,Sils im Domleschg,46.7,9.45
7513,Silvaplana,46.45,9.78333
6562,Soazza,46.35,9.21667
7610,Soglio,46.3333,9.53333
7435,Splügen,46.55,9.31667
7605,Stampa,46.3333,9.56667
7459,Stierva,46.6667,9.53333
7434,Sufers,46.5667,9.36667
7472,Surava,46.6667,9.61667
7138,Surcuolm,46.75,9.15
7015,Tamins,46.8333,9.4
7553,Tarasp,46.7833,10.25
7422,Tartar,46.7167,9.41667
7162,Tavanasa,46.75,9.05
7106,Tenna,46.75,9.33333
7109,Thalkirch,46.6333,9.28333
7430,Thusis,46.6833,9.43333
7450,Tiefencastel,46.65,9.58333
7453,Tinizong,46.5833,9.61667
7417,Trans,46.7667,9.45
7203,Trimmis,46.9,9.55
7166,Trun,46.75,8.98333
7428,Tschappina,46.6833,9.36667
7064,Tschiertschen,46.8167,9.6
7204,Untervaz,46.9333,9.53333
7427,Urmein,46.7,9.4
7077,Valbella,46.4,9.13333
7122,Valendas,46.7833,9.26667
7213,Valzeina,46.95,9.6
6538,Verdabbio,46.2667,9.15
7104,Versam,46.8,9.33333
7747,Viano,46.25,10.15
7603,Vicosoprano,46.35,9.61667
7147,Vignogn,46.7,9.15
7149,Vrin,46.65,9.1
7552,Vulpera,46.7833,10.2833
7433,Wergenstein,46.6333,9.4
7530,Zernez,46.7,10.1
7167,Zignau,46.7333,9
7432,Zillis,46.6333,9.45
7205,Zizers,46.9333,9.56667
7524,Zuoz,46.6,9.95
2942,Alle,47.4333,7.13333
2954,Asuel,47.3833,7.2
2854,Bassecourt,47.35,7.23333
2926,Boncourt,47.5,7.01667
2944,Bonfol,47.4833,7.15
2925,Buix,47.4833,7.03333
2915,Bure,47.45,7
2947,Charmoille,47.4333,7.21667
2906,Chevenez,47.3833,7
2830,Choindez,47.3167,7.38333
2932,Coeuve,47.4667,7.1
2952,Cornol,47.4,7.16667
2853,Courfaivre,47.3333,7.28333
2950,Courgenay,47.4,7.11667
2830,Courrendlin,47.3333,7.36667
2822,Courroux,47.3667,7.36667
2905,Courtedoux,47.4,7.03333
2923,CourtemaÃ®che,47.4667,7.05
2852,Courtételle,47.35,7.31667
2914,Damvant,47.3667,6.9
2800,Delémont,47.3667,7.33333
2916,Fahy,47.4167,6.95
2902,Fontenais,47.4,7.08333
2855,Glovelier,47.3333,7.2
2908,Grandfontaine,47.3833,6.93333
2345,La Chaux-des-Breuleux,47.2167,7.03333
2340,Le Noirmont,46.4833,6.11667
2345,Le Peuchapatte,47.2,6.95
2336,Les Bois,47.1667,6.9
2345,Les Breuleux,47.2,7
2353,Les Pommerats,47.2667,6.98333
2807,Lucelle,47.4167,7.5
2933,Lugnez,46.7,9.16667
2827,Mervelier,47.35,7.48333
2946,Miécourt,47.4333,7.18333
2875,Montfaucon,47.2833,7.06667
2924,Montignez,47.4833,7.05
2812,Movelier,47.4167,7.3
2889,Ocourt,47.35,7.08333
2807,Pleigne,47.4,7.28333
2900,Porrentruy,47.4167,7.08333
2350,Saignelégier,47.25,7
2873,Saulcy,47.3,7.15
2887,Soubey,47.3,7.05
2805,Soyhières,47.4,7.36667
2863,Undervelier,47.3,7.21667
2943,Vendlincourt,47.45,7.15
2829,Vermes,47.3333,7.46667
2824,Vicques,47.35,7.41667
6043,Adligenswil,47.0667,8.36667
6248,Alberswil,47.15,8
6246,Altishofen,47.2,7.96667
6275,Ballwil,47.15,8.31667
6215,Beromünster,47.2,8.18333
6033,Buchrain,47.1,8.35
6233,Büron,47.2167,8.1
6018,Buttisholz,47.1,8.1
6252,Dagmersellen,47.2167,7.98333
6112,Doppleschwand,47.0167,8.05
6030,Ebikon,47.0833,8.33333
6031,Ebikon,47.0833,8.33333
6205,Eich,47.15,8.16667
6013,Eigenthal,47.0167,8.21667
6032,Emmen,47.0833,8.3
6020,Emmenbrücke,47.0667,8.26667
6162,Entlebuch,46.9667,8.05
6182,Escholzmatt,46.9167,7.93333
6218,Ettiswil,47.15,8.01667
6284,Gelfingen,47.1667,8.25
6142,Gettnau,47.1333,7.96667
6232,Geuensee,47.2,8.1
6404,Greppen,47.05,8.43333
6022,Grosswangen,47.1333,8.05
6222,Gunzwil,47.2167,8.18333
6289,Hämikon,47.2333,8.28333
6016,Hellbühl,47.0667,8.2
6353,Hertenstein,47.0333,8.4
6024,Hildisrieden,47.15,8.23333
6285,Hitzkirch,47.2333,8.26667
6280,Hochdorf,47.1667,8.28333
6281,Hochdorf,47.1667,8.28333
6276,Hohenrain,47.1833,8.31667
6048,Horw,47.0167,8.3
6034,Inwil,47.1167,8.33333
6047,Kastanienbaum,47.0167,8.33333
6213,Knutwil,47.2,8.06667
6010,Kriens,47.0333,8.28333
6011,Kriens,47.0333,8.28333
6014,Littau,47.05,8.25
6156,Luthern,47.0667,7.91667
6000,Luzern,47.0833,8.26667
6002,Luzern,47.0833,8.26667
6003,Luzern,47.0833,8.26667
6004,Luzern,47.0833,8.26667
6005,Luzern,47.0833,8.26667
6006,Luzern,47.0833,8.26667
6007,Luzern,47.0833,8.26667
6009,Luzern,47.0833,8.26667
6102,Malters,47.0333,8.18333
6216,Mauensee,47.1667,8.06667
6045,Meggen,47.05,8.38333
6344,Meierskappel,47.1167,8.43333
6122,Menznau,47.0833,8.03333
6244,Nebikon,47.1833,7.96667
6025,Neudorf,47.1667,8.2
6206,Neuenkirch,47.1,8.2
6207,Nottwil,47.1333,8.13333
6143,Ohmstal,47.1667,7.95
6035,Perlen,47.1167,8.36667
6264,Pfaffnau,47.2333,7.9
6260,Reiden,47.25,7.96667
6263,Richenthal,47.2167,7.93333
6356,Rigi Kaltbad,47.05,8.46667
6037,Root,47.0833,8.38333
6017,Ruswil,47.0833,8.11667
6196,Schärlig,46.8833,7.9
6214,Schenkon,47.1667,8.13333
6288,Schongau,47.2667,8.25
6247,Schötz,47.1667,7.98333
6170,Schüpfheim,46.95,8.01667
6174,Sörenberg,46.8333,8.01667
6210,Sursee,47.1667,8.1
6234,Triengen,47.2333,8.08333
6044,Udligenswil,47.1,8.4
6253,Uffikon,47.2167,8.01667
6153,Ufhusen,47.1167,7.9
6354,Vitznau,47.0167,8.48333
6242,Wauwil,47.1833,8.01667
6353,Weggis,47.0333,8.43333
6106,Werthenstein,47.05,8.1
6192,Wiggen,46.6667,8.51667
4806,Wikon,47.2667,7.96667
6130,Willisau,47.1167,7.98333
6235,Winikon,47.2333,8.05
6110,Wolhusen,47.05,8.06667
2015,Areuse,46.9333,6.86667
2012,Auvernier,46.9667,6.86667
2022,Bevaix,46.9333,6.81667
2043,Boudevilliers,47.0333,6.88333
2017,Boudry,46.95,6.83333
2149,Brot-Dessous,46.95,6.75
2318,Brot-Plamboz,46.9833,6.75
2115,Buttes,46.8833,6.55
2053,Cernier,47.0667,6.9
2067,Chaumont,47.0167,6.95
2025,Chez-le-Bart,46.9,6.78333
2016,Cortaillod,46.9333,6.85
2108,Couvet,46.9167,6.63333
2056,Dombresson,47.0667,6.96667
2114,Fleurier,46.9,6.58333
2052,Fontainemelon,47.05,6.88333
2023,Gorgier,46.9,6.76667
2406,La Brévine,46.9833,6.6
2300,La Chaux-de-Fonds,47.1333,6.85
2301,La Chaux-de-Fonds,47.1333,6.85
2302,La Chaux-de-Fonds,47.1333,6.85
2303,La Chaux-de-Fonds,47.1333,6.85
2304,La Chaux-de-Fonds,47.1333,6.85
2305,La Chaux-de-Fonds,47.1333,6.85
2306,La Chaux-de-Fonds,47.1333,6.85
2117,La Côte-aux-Fées,46.8667,6.48333
2525,Le Landeron,47.05,7.06667
2400,Le Locle,47.0667,6.75
2127,Les Bayards,46.9167,6.51667
2416,Les Brenets,47.0667,6.7
2206,Les Geneveys-sur-Coffrane,47.0333,6.85
2208,Les Hauts-Geneveys,47.05,6.88333
2316,Les Ponts-de-Martel,47,6.73333
2126,Les Verrières,46.9,6.46667
2523,Lignières,47.0833,7.06667
2074,Marin-Epagnier,47.0167,7
2000,NeuchÃ¢tel,47,6.96667
2103,Noiraigue,46.95,6.73333
2034,Peseux,46.9833,6.88333
2065,Savagnier,47.05,6.95
2075,Thielle,47,7.03333
2105,Travers,46.9333,6.68333
2042,Valangin,46.0167,6.9
6375,Beckenried,46.9667,8.46667
6374,Buochs,46.9667,8.41667
6363,Bürgenstock,47,8.41667
6383,Dallenwil,46.9167,8.38333
6376,Emmetten,46.9667,8.51667
6373,Ennetbürgen,46.9833,8.33333
6365,Kehrsiten,46.9833,8.36667
6383,Niederrickenbach,46.9167,8.43333
6387,Oberrickenbach,46.8833,8.41667
6370,Stans,46.9667,8.35
6371,Stans,46.9667,8.35
6362,Stansstad,46.9667,8.33333
6386,Wolfenschiessen,46.9167,8.4
6053,Alpnachstad,46.9667,8.28333
6390,Engelberg,46.8333,8.41667
6391,Engelberg,46.8333,8.41667
6074,Giswil,46.8333,8.18333
6388,Grafenort,46.8667,8.36667
6064,Kerns,46.9,8.28333
6078,Lungern,46.8,8.16667
6067,Melchtal,46.85,8.28333
6072,Sachseln,46.8667,8.23333
6060,Sarnen,46.9,8.23333
9423,Altenrhein,47.4833,9.55
8873,Amden,47.1333,9.13333
7310,Bad Ragaz,47,9.5
9436,Balgach,47.4167,9.6
9602,Bazenheid,47.4,9.06667
9442,Berneck,47.4167,9.6
8892,Berschis,47.1,9.35
9552,Bronschhofen,47.4833,9.03333
9125,Brunnadern,47.3333,9.11667
9606,Bütschwil,47.35,9.06667
9113,Degersheim,47.3667,9.2
9444,Diepoldsau,47.3833,9.63333
9642,Ebnat-Kappel,47.25,9.11667
9034,Eggersriet,47.45,9.46667
9453,Eichberg,47.35,9.53333
9230,Flawil,47.4167,9.18333
8890,Flums,47.0833,9.35
9030,Gaiserwald,47.45,9.33333
9473,Gams,47.2,9.43333
9608,Ganterschwil,47.3833,9.08333
9403,Goldach,47.4667,9.46667
8638,Goldingen,47.2667,8.96667
8737,Gommiswald,47.2167,9.01667
9472,Grabs,47.2,9.43333
9312,Häggenschwil,47.4833,9.35
9435,Heerbrugg,47.4,9.63333
9633,Hemberg,47.3,9.18333
9247,Henau,47.45,9.11667
8645,Jona,47.25,8.85
9243,Jonschwil,47.4333,9.08333
8722,Kaltbrunn,47.2167,9.03333
9622,Krinau,47.3167,9.05
9302,Kronbühl,47.45,9.38333
9643,Krummenau,47.2333,9.16667
9620,Lichtensteig,47.3333,9.08333
9464,Lienz,47.2833,9.53333
9604,Lütisburg,47.4,9.08333
8887,Mels,47.05,9.41667
9122,Mogelsberg,47.3667,9.11667
8885,Mols,47.1,9.28333
9402,Mörschwil,47.4667,9.41667
9607,Mosnang,47.3667,9.03333
9613,Mühlrüti,47.3667,8.98333
9313,Muolen,47.5167,9.31667
8877,Murg,47.1167,9.21667
9126,Necker,47.35,9.13333
9650,Nesslau,47.2167,9.2
9246,Niederbüren,47.45,9.2
9527,Niederhelfenschwil,47.4667,9.18333
9244,Niederuzwil,47.4333,9.11667
9245,Oberbüren,47.1333,7.38333
9621,Oberhelfenschwil,47.35,9.1
8884,Oberterzen,47.0833,9.25
9242,Oberuzwil,47.4333,9.11667
8883,Quarten,47.1,9.25
8878,Quinten,47.1167,9.21667
9445,Rebstein,47.4,9.58333
9424,Rheineck,47.4667,9.58333
9404,Rorschacherberg,47.4667,9.5
8723,Rufi,47.1833,9.05
9465,Salez,47.2333,9.5
7320,Sargans,47.05,9.43333
9468,Sax,47.2333,9.45
8718,Schänis,47.15,9.05
8716,Schmerikon,47.2167,8.93333
9466,Sennwald,47.2667,9.5
9475,Sevelen,47.1167,9.48333
9425,Thal,46.6333,9.28333
9477,Trübbach,47.0667,9.46667
8882,Unterterzen,47.1167,9.25
9657,Unterwasser,47.2,9.3
8730,Uznach,47.2167,8.98333
9240,Uzwil,47.4333,9.13333
7317,Valens,46.9667,9.48333
7317,Vasön,46.95,9.46667
7315,Vättis,46.9167,9.43333
7324,Vilters,47.0167,9.45
9205,Waldkirch,47.4667,9.28333
7323,Wangs,47.0333,9.43333
9478,Wartau,47.0833,9.48333
9630,Wattwil,47.3,9.08333
8872,Weesen,47.1333,9.1
7326,Weisstannen,46.9833,9.33333
9470,Werdenberg,47.1667,9.46667
9658,Wildhaus,47.2,9.35
9303,Wittenbach,47.4667,9.36667
9526,Zuckenriet,47.4833,9.15
8228,Beggingen,47.7833,8.55
8222,Beringen,47.7,8.56667
8454,Buchberg,47.5833,8.56667
8214,Gächlingen,47.7167,8.5
8215,Hallau,47.7,8.46667
8261,Hemishofen,47.6833,8.83333
8231,Hemmental,47.7333,8.55
8232,Merishausen,47.75,8.6
8212,Neuhausen am Rheinfall,47.6833,8.61667
8213,Neunkirch,47.7,8.5
8216,Oberhallau,47.7,8.48333
8218,Osterfingen,47.6667,8.48333
8262,Ramsen,47.7,8.81667
8455,Rüdlingen,47.5833,8.56667
8200,Schaffhausen,47.7,8.63333
8201,Schaffhausen,47.7,8.63333
8202,Schaffhausen,47.7,8.63333
8203,Schaffhausen,47.7,8.63333
8204,Schaffhausen,47.7,8.63333
8205,Schaffhausen,47.7,8.63333
8206,Schaffhausen,47.7,8.63333
8207,Schaffhausen,47.7,8.63333
8208,Schaffhausen,47.7,8.63333
8226,Schleitheim,47.75,8.48333
8225,Siblingen,47.7167,8.5
8260,Stein am Rhein,47.65,8.85
8240,Thayngen,47.7333,8.7
8219,Trasadingen,47.6667,8.41667
8217,Wilchingen,47.6667,8.46667
4714,Aedermannsdorf,47.3,7.6
4710,Balsthal,47.3167,7.68333
4252,Bärschwil,47.3833,7.46667
2544,Bettlach,47.2,7.41667
4562,Biberist,47.1833,7.55
4226,Breitenbach,47.4,7.55
3307,Brunnenthal,47.0833,7.46667
4227,Büsserach,47.3833,7.53333
4543,Deitingen,47.2167,7.61667
4552,Derendingen,47.2,7.58333
4143,Dornach,47.4667,7.61667
4622,Egerkingen,47.3167,7.76667
4228,Erschwil,47.3667,7.53333
4532,Feldbrunnen,47.2167,7.55
4629,Fulenbach,47.2667,7.83333
4716,Gänsbrunnen,47.25,7.46667
4145,Gempen,47.4667,7.65
4563,Gerlafingen,47.1667,7.56667
2540,Grenchen,47.1833,7.38333
4617,Gunzgen,47.3167,7.81667
4614,Hägendorf,47.3333,7.83333
4566,Halten,46.9,8.16667
4633,Hauenstein,47.3667,7.86667
4715,Herbetswil,47.3,7.58333
4577,Hessigkofen,47.15,7.46667
4204,Himmelried,47.4167,7.58333
4146,Hochwald,47.45,7.63333
4245,Kleinlützel,47.4333,7.41667
4566,Kriegstetten,47.1833,7.6
4581,Küttigkofen,47.1333,7.5
4712,Laupersdorf,47.3167,7.65
4654,Lostorf,47.3833,7.95
4542,Luterbach,47.0833,8.45
4115,Mariastein,47.4667,7.51667
4713,Matzendorf,47.3,7.61667
3254,Messen,47.0833,7.45
4116,Metzerlen,47.45,7.46667
4717,Mümliswil,47.35,7.7
4626,Niederbuchsiten,47.2833,7.75
5015,Niedererlinsbach,47.4,8
5013,Niedergösgen,47.3667,7.96667
4208,Nunningen,47.4,7.6
4625,Oberbuchsiten,47.3,7.75
5016,Obererlinsbach,47.4,8
4564,Obergerlafingen,47.1667,7.56667
4653,Obergösgen,47.35,7.95
4702,Oensingen,47.2833,7.73333
4600,Olten,47.35,7.91667
4601,Olten,47.35,7.91667
4603,Olten,47.35,7.91667
4719,Ramiswil,47.35,7.65
4533,Riedholz,47.2167,7.56667
4118,Rodersdorf,47.4833,7.45
3253,Schnottwil,47.1,7.38333
5012,Schönenwerd,47.3667,8
2545,Selzach,47.2,7.43333
4500,Solothurn,47.2333,7.51667
4501,Solothurn,47.2333,7.51667
4502,Solothurn,47.2333,7.51667
4503,Solothurn,47.2333,7.51667
4509,Solothurn,47.2333,7.51667
4553,Subingen,47.2,7.61667
4632,Trimbach,47.3667,7.9
4716,Welschenrohr,47.2833,7.53333
4628,Wolfwil,47.2667,7.78333
4528,Zuchwil,47.2,7.56667
4234,Zullwil,47.3833,7.6
8849,Alpthal,47.0833,8.71667
8852,Altendorf,47.1833,8.81667
6415,Arth,47.0667,8.51667
6440,Brunnen,46.9833,8.6
8840,Einsiedeln,47.1167,8.75
8844,Euthal,47.1,8.81667
8835,Feusisberg,47.1833,8.73333
8807,Freienbach,47.2,8.75
6442,Gersau,46.9833,8.53333
6410,Goldau,47.05,8.55
8640,Hurden,47.2167,8.8
6438,Ibach,47.0167,8.65
6434,Illgau,46.9833,8.73333
6405,Immensee,47.1,8.46667
8858,Innerthal,47.1,8.91667
6403,Küssnacht am Rigi,47.0833,8.43333
6424,Lauerz,47.0333,8.58333
6443,Morschach,46.9833,8.63333
6436,Muotathal,46.9667,8.76667
8843,Oberiberg,47.0333,8.78333
8864,Reichenburg,47.1667,8.98333
6452,Riemenstalden,46.95,8.66667
6410,Rigi Scheidegg,47.0167,8.51667
6418,Rothenthurm,47.1,8.68333
6417,Sattel,47.0833,8.63333
8834,Schindellegi,47.1667,8.7
8862,Schübelbach,47.1667,8.93333
6430,Schwyz,47.0167,8.65
6431,Schwyz,47.0167,8.65
8854,Siebnen,47.1833,8.9
6422,Steinen,47.05,8.6
6416,Steinerberg,47.05,8.58333
8856,Tuggen,47.2,8.93333
8842,Unteriberg,47.05,8.78333
8857,Vorderthal,47.1167,8.88333
8832,Wollerau,47.1833,8.7
8355,Aadorf,47.4833,8.9
9556,Affeltrangen,47.5167,9.03333
8573,Alterswilen,47.6167,9.15
8595,Altnau,47.6167,9.25
8580,Amriswil,47.5333,9.3
9320,Arbon,47.5167,9.43333
8254,Basadingen,47.6667,8.75
8363,Bichelsee,47.45,8.93333
8514,Bissegg,47.5667,9.05
8598,Bottighofen,47.6333,9.21667
8253,Diessenhofen,47.7,8.75
9322,Egnach,47.5333,9.36667
8586,Erlen,47.55,9.23333
8272,Ermatingen,47.6667,9.08333
8264,Eschenz,47.65,8.86667
8553,Eschikofen,47.5833,9.01667
8259,Etzwilen,47.65,8.81667
8376,Fischingen,47.4167,8.96667
8500,Frauenfeld,47.55,8.9
8501,Frauenfeld,47.55,8.9
8502,Frauenfeld,47.55,8.9
8503,Frauenfeld,47.55,8.9
8547,Gachnang,47.5333,8.85
8500,Gerlikon,47.5333,8.86667
8274,Gottlieben,47.6667,9.13333
8594,Güttingen,47.6,9.28333
9213,Hauptwil,47.4667,9.28333
8535,Herdern,47.6,8.9
8585,Herrenhof,47.5833,9.23333
8508,Homburg,47.6333,9
8507,Hörhausen,47.6333,8.96667
9326,Horn,47.4833,9.46667
8553,Hüttlingen,47.5667,8.98333
8536,Hüttwilen,47.6,8.86667
8546,Islikon,47.55,8.85
8546,Kefikon,47.55,8.81667
8593,Kesswil,47.5833,9.3
9214,Kradolf,47.5333,9.2
8280,Kreuzlingen,47.65,9.18333
8585,Langrickenbach,47.5833,9.23333
9506,Lommis,47.5167,8.98333
8265,Mammern,47.65,8.91667
8560,Märstetten,47.6,9.06667
9562,Märwil,47.5167,9.08333
9548,Matzingen,47.5167,8.93333
9517,Mettlen,47.5333,9.11667
9217,Neukirch an der Thur,47.55,9.35
8587,Oberaach,47.5667,9.26667
8505,Pfyn,47.6,8.96667
8558,Raperswilen,47.6333,9.03333
8590,Romanshorn,47.5667,9.38333
8599,Salmsach,47.55,9.36667
8596,Scherzingen,47.6333,9.21667
8255,Schlattingen,47.6667,8.75
8577,Schönholzerswilen,47.5167,9.13333
8573,Siegershausen,47.6167,9.15
8370,Sirnach,47.4667,9
8580,Sommeri,47.5667,9.28333
8266,Steckborn,47.6667,8.98333
9507,Stettfurt,47.5333,8.95
8583,Sulgen,47.5333,9.18333
8274,Tägerwilen,47.65,9.11667
8512,Thundorf,47.5333,8.96667
9555,Tobel,47.5167,9.03333
8524,Uesslingen,47.5833,8.81667
8592,Uttwil,47.5833,9.33333
8259,Wagenhausen,47.65,8.85
8564,Wäldi,47.6333,9.08333
9545,Wängi,47.5,8.95
8570,Weinfelden,47.5667,9.1
8556,Wigoltingen,47.6,9.03333
9514,Wuppenau,47.4833,9.1
8588,Zihlschlacht,47.5167,9.25
6716,Acquarossa,46.45,8.95
6982,Agno,45.9833,8.85
6927,Agra,45.9667,8.91667
6780,Airolo,46.5333,8.6
6781,All'Acqua,46.4833,8.46667
6775,Ambrì,46.5,8.68333
6748,Anzonico,46.4333,8.88333
6719,Aquila,46.5,8.95
6517,Arbedo,46.2,9.05
6618,Arcegno,46.1667,8.75
6822,Arogno,45.95,8.96667
6939,Arosio,46.05,8.9
6864,Arzo,45.8833,8.93333
6612,Ascona,46.15,8.76667
6999,Astano,46.0167,8.81667
6661,Auressio,46.2,8.68333
6677,Aurigeno,46.2333,8.7
6670,Avegno,46.2,8.73333
6828,Balerna,45.85,9
6981,Banco,46,8.85
6781,Bedretto,46.5,8.5
6500,Bellinzona,46.2,9.01667
6501,Bellinzona,46.2,9.01667
6503,Bellinzona,46.2,9.01667
6661,Berzona,46.2167,8.85
6710,Biasca,46.35,8.96667
6958,Bidogno,46.0833,8.98333
6676,Bignasco,46.35,8.61667
6954,Bigorio,46.0667,8.95
6934,Bioggio,46.0167,8.88333
6804,Bironico,46.1,8.93333
6816,Bissone,45.95,8.96667
6951,Bogno,46.1,9.06667
6658,Borgnone,46.1667,8.63333
6979,Brè sopra Lugano,46.0167,9
6937,Breno,46.0333,8.88333
6614,Brissago,46.1167,8.71667
6693,Broglio,46.3833,8.66667
6692,Brontallo,46.35,8.63333
6827,Brusino Arsizio,45.9333,8.93333
6814,Cadempino,46.0333,8.9
6593,Cadenazzo,46.15,8.95
6965,Cadro,46.05,8.98333
6955,Cagiallo,46.0667,8.98333
6760,Calpiogna,46.4833,8.8
6528,Camorino,46.15,9
6952,Canobbio,46.0333,8.95
6825,Capolago,45.9,8.98333
6584,Carena,46.1667,9.08333
6875,Casima,45.8833,9.03333
6987,Caslano,45.9667,8.88333
6976,Castagnola,46,9
6532,Castione,46.2333,9.03333
6723,Castro,46.4833,8.93333
6690,Cavergno,46.35,8.6
6578,Caviano,46.1,8.76667
6683,Cerentino,46.3,8.55
6959,Certara,46.0833,9.06667
6675,Cevio,46.3167,8.6
6830,Chiasso,45.8333,9.03333
6764,Chiggiogna,46.4667,8.81667
6747,Chironico,46.4167,8.83333
6959,Cimadera,46.0833,9.05
6684,Cimalmotto,46.2833,8.5
6702,Claro,46.25,9.03333
6949,Comano,46.0333,8.93333
6663,Comologno,46.2,8.58333
6594,Contone,46.15,8.93333
6646,Contra,46.1833,8.83333
6631,Corippo,46.2333,8.83333
6611,Crana,46.2167,8.61667
6705,Cresciano,46.2667,9
6516,Cugnasco,46.1667,8.88333
6959,Curtina,46.0833,9.01667
6774,Dalpe,46.4667,8.76667
6967,Dino,46.05,8.98333
6715,Dongio,46.4333,8.95
6760,Faido,46.4667,8.8
6636,Frasco,46.3333,8.8
6696,Fusio,46.4333,8.65
6978,Gandria,46,9
6852,Genestrerio,45.85,8.95
6745,Giornico,46.3833,8.88333
6512,Giubiasco,46.1667,9
6678,Giumaglio,46.2833,8.68333
6525,Gnosca,46.2333,9.01667
6672,Gordevio,46.2167,8.75
6596,Gordola,46.1833,8.85
6518,Gorduno,46.2167,9.01667
6929,Gravesano,46.05,8.9
6611,Gresso,46.2167,8.61667
6571,Indemini,46.1,8.81667
6655,Intragna,46.1667,8.7
6707,Iragna,46.3167,8.96667
6993,Iseo,46,8.86667
6614,Isole di Brissago,46.1,8.71667
6810,Isone,46.1333,8.98333
6633,Lavertezzo,46.25,8.83333
6746,Lavorgo,46.45,8.83333
6853,Ligornetto,45.8667,8.95
6600,Locarno,46.1667,8.8
6601,Locarno,46.1667,8.8
6604,Locarno,46.1667,8.8
6605,Locarno,46.1667,8.8
6661,Loco,46.2,8.66667
6678,Lodano,46.25,8.68333
6527,Lodrino,46.3,8.96667
6616,Losone,46.1333,8.75
6716,Lottigna,46.4667,8.95
6721,Ludiano,46.4167,8.96667
6900,Lugano,45.9667,9
6901,Lugano,45.9667,9
6903,Lugano,45.9667,9
6533,Lumino,46.2167,9.06667
6573,Magadino,46.15,8.86667
6673,Maggia,46.15,8.75
6713,Malvaglia,46.4,8.98333
6928,Manno,46.0333,8.9
6817,Maroggia,45.9167,8.98333
6900,Massagno,46.0167,8.95
6809,Medeglia,46.1167,8.93333
6818,Melano,45.9333,9
6815,Melide,45.95,8.95
6850,Mendrisio,45.8667,8.98333
6647,Mergoscia,46.2,8.85
6866,Meride,45.9,8.95
6805,Mezzovico,46.0833,8.91667
6986,Miglieglia,46.0167,8.85
6648,Minusio,46.1833,8.81667
6677,Moghegno,46.2333,8.68333
6524,Moleno,46.2667,8.98333
6926,Montagnola,45.9833,8.91667
6875,Monte,46.55,8.63333
6513,Monte Carasso,46.1833,9
6834,Morbio Inferiore,45.85,9.03333
6835,Morbio Superiore,45.8667,9.03333
6922,Morcote,45.9167,8.91667
6611,Mosogno,46.1833,8.63333
6939,Mugena,46.05,8.88333
6838,Muggio,45.9,9.05
6986,Novaggio,46.0167,8.86667
6883,Novazzano,45.8333,8.96667
6718,Olivone,46.5333,8.95
6763,Osco,46.4833,8.78333
6703,Osogna,46.3167,8.98333
6657,Palagnedra,46.15,8.63333
6695,Peccia,46.4,8.65
6832,Pedrinate,45.8333,9.01667
6744,Personico,46.3667,8.9
6582,Pianezzo,46.1667,9.03333
6579,Piazzogna,46.1333,8.81667
6776,Piotta,46.5167,8.68333
6724,Ponto Valentino,46.4833,8.93333
6613,Porto Ronco,46.1333,8.73333
6963,Pregassona,46.0333,8.96667
6526,Prosito,46.2833,8.98333
6723,Prugiasco,46.4667,8.91667
6984,Pura,45.9667,8.86667
6572,Quartino,46.15,8.88333
6777,Quinto,46.5167,8.71667
6674,Riveo,46.2833,8.63333
6599,Robasacco,46.1333,8.91667
6622,Ronco sopra Ascona,46.15,8.73333
6760,Rossura,46.4667,8.83333
6821,Rovio,45.9167,8.98333
6514,Sementina,46.1833,8.98333
6997,Sessa,46,8.81667
6806,Sigirino,46.0833,8.91667
6951,Signôra,46.1,9.05
6749,Sobrio,46.4,8.91667
6600,Solduno,46.1667,8.78333
6674,Someo,46.2833,8.66667
6637,Sonogno,46.35,8.78333
6968,Sonvico,46.0667,8.98333
6924,Sorengo,46,8.93333
6663,Spruga,46.2,8.56667
6855,Stabio,45.85,8.93333
6807,Taverne,46.0667,8.93333
6652,Tegna,46.1833,8.73333
6598,Tenero,46.1833,8.85
6950,Tesserete,46.0667,8.96667
6717,Torre,46.4833,8.95
6833,Vacallo,45.85,9.03333
6575,Vairano,46.1333,8.81667
6655,Verdasio,46.1667,8.63333
6664,Vergeletto,46.2167,8.61667
6653,Verscio,46.1833,8.73333
6962,Viganello,46.0167,8.98333
6474,Amsteg,46.7667,8.66667
6490,Andermatt,46.6333,8.6
6468,Attinghausen,46.8667,8.61667
6466,Bauen,46.9333,8.58333
6475,Bristen,46.7667,8.68333
6472,Erstfeld,46.8167,8.63333
6487,Göschenen,46.6667,8.58333
6482,Gurtnellen,46.75,8.63333
6493,Hospental,46.6167,8.56667
6476,Intschi,46.7667,8.66667
6461,Isenthal,46.9167,8.55
6491,Realp,46.6,8.5
6441,Rütli,46.9667,8.58333
6467,Schattdorf,46.8667,8.65
6377,Seelisberg,46.9667,8.58333
6473,Silenen,46.7833,8.66667
6452,Sisikon,46.95,8.61667
6464,Spiringen,46.8833,8.73333
6465,Unterschächen,46.8667,8.76667
8751,Urnerboden,46.8833,8.9
1352,Agiez,46.7167,6.51667
1860,Aigle,46.3167,6.96667
1165,Allaman,46.4667,6.4
1143,Apples,46.55,6.43333
1884,Arveyes,46.2833,7.06667
1273,Arzier,46.4667,6.2
1042,Assens,46.6167,6.61667
1170,Aubonne,46.45,6.38333
1580,Avenches,46.8833,7.05
1338,Ballaigues,46.7333,6.41667
1144,Ballens,46.55,6.36667
1446,Baulmes,46.7833,6.53333
1372,Bavois,46.6833,6.56667
1268,Begnins,46.4333,6.25
1092,Belmont-sur-Lausanne,46.5333,6.7
1038,Bercher,46.7,6.71667
1880,Bex,46.25,7.01667
1145,Bière,46.55,6.33333
1042,Bioley-Orjulaz,46.6167,6.61667
1807,Blonay,46.4667,6.9
1279,Bogis-Bossey,46.35,6.16667
1427,Bonvillars,46.85,6.66667
1277,Borex,46.3833,6.18333
1041,Bottens,46.6167,6.65
1683,Brenles,46.6833,6.86667
1453,Bullet,46.8167,6.56667
1195,Bursinel,46.4333,6.3
1183,Bursins,46.45,6.28333
1261,Burtigny,46.4667,6.25
1824,Caux,46.4333,6.93333
1589,Chabrey,46.9333,6.98333
1424,Champagne,46.8333,6.65
1443,Champvent,46.7833,6.56667
1803,Chardonne,46.4833,6.81667
1660,Château-d'Oex,46.4667,7.13333
1464,Chavannes-le-Chêne,46.7833,6.78333
1373,Chavornay,46.7167,6.56667
1464,Chêne-Pâquier,46.7667,6.76667
1885,Chesières,46.3,7.05
1545,Chevroux,46.8833,6.9
1071,Chexbres,46.4833,6.78333
1536,Combremont-le-Petit,46.75,6.83333
1426,Concise,46.85,6.71667
1296,Coppet,46.2833,7.33333
1856,Corbeyrier,46.35,6.96667
1304,Cossonay-Ville,46.6167,6.51667
1263,Crassier,46.3667,6.16667
1023,Crissier,46.55,6.58333
1588,Cudrefin,46.95,7.01667
1096,Cully,46.4833,6.73333
1306,Daillens,46.6167,6.55
1304,Dizy,46.6333,6.48333
1582,Donatyre,46.8833,7.06667
1407,Donneloye,46.75,6.71667
1040,Echallens,46.6333,6.63333
1066,Epalinges,46.55,6.66667
1417,Epautheyres,46.7333,6.63333
1186,Essertines-sur-Rolle,46.5,6.31667
1262,Eysins,46.3833,6.2
1595,Faoug,46.9,7.08333
1420,Fiez,46.8333,6.61667
1297,Founex,46.3333,6.2
1055,Froideville,46.6,6.68333
1272,Genolier,46.4333,6.2
1182,Gilly,46.45,6.3
1188,Gimel,46.5167,6.3
1276,Gingins,46.4,6.18333
1271,Givrins,46.4167,6.2
1196,Gland,46.4333,6.26667
1823,Glion,46.4167,6.93333
1124,Gollion,46.5833,6.51667
1376,Goumoens-la-Ville,46.65,6.6
1117,Grancy,46.6,6.46667
1543,Grandcour,46.8833,6.93333
1422,Grandson,46.8167,6.63333
1882,Gryon,46.2667,7.1
1884,Huémoz,46.2833,7.01667
1806,La Chiésaz,46.4667,6.88333
1862,La Comballaz,46.3833,7.06667
1265,La Cure,46.4667,6.08333
1660,La Lécherette,46.4333,7.11667
1315,La Sarraz,46.6667,6.51667
1658,La Tine,46.4667,7.05
1814,La Tour-de-Peilz,46.45,6.86667
1344,L'Abbaye,46.65,6.31667
1000,Lausanne,46.5333,6.66667
1001,Lausanne,46.5333,6.66667
1002,Lausanne,46.5333,6.66667
1003,Lausanne,46.5333,6.66667
1004,Lausanne,46.5333,6.66667
1005,Lausanne,46.5333,6.66667
1006,Lausanne,46.5333,6.66667
1007,Lausanne,46.5333,6.66667
1010,Lausanne,46.5333,6.66667
1011,Lausanne,46.5333,6.66667
1012,Lausanne,46.5333,6.66667
1015,Lausanne,46.5333,6.66667
1018,Lausanne,46.5333,6.66667
1892,Lavey-les-Bains,46.2,7.03333
1892,Lavey-Village,46.2167,7.03333
1348,Le Brassus,46.5833,6.21667
1052,Le Mont-sur-Lausanne,46.55,6.63333
1342,Le Pont,46.6667,6.31667
1347,Le Sentier,46.6167,6.23333
1863,Le Sépey,46.3667,7.05
1261,Le Vaud,46.4833,6.23333
1833,Les Avants,46.45,6.95
1343,Les Charbonnières,46.6667,6.31667
1865,Les Diablerets,46.3167,7.2
1862,Les Mosses,46.4,7.11667
1660,Les Moulins,46.4667,7.11667
1888,Les Plans-sur-Bex,46.2667,7.1
1607,Les Thioleyres,46.5333,6.78333
1854,Leysin,46.35,7.01667
1148,L'Isle,46.6167,6.41667
1261,Longirod,46.4833,6.25
1522,Lucens,46.7167,6.83333
1095,Lutry,46.5167,6.7
1613,Maracon,46.55,6.86667
1261,Marchissy,46.4833,6.23333
1453,Mauborget,46.8667,6.61667
1354,Montcherand,46.7333,6.51667
1820,Montreux,46.4333,6.91667
1147,Montricher,46.6,6.38333
1185,Mont-sur-Rolle,46.4667,6.33333
1892,Morcles,46.2167,7.03333
1110,Morges,46.5167,6.5
1510,Moudon,46.6667,6.8
1041,Naz,46.5833,9.76667
1431,Novalles,46.8333,6.6
1260,Nyon,46.3833,6.25
1580,Oleyres,47.85,7.05
1413,Oppens,46.7167,6.7
1350,Orbe,46.7167,6.53333
1610,Oron-la-Ville,46.5667,6.8
1416,Pailly,46.7,6.68333
1142,Pampigny,46.5833,6.43333
1867,Panex,46.3,7.01667
1094,Paudex,46.5,6.66667
1530,Payerne,46.8167,6.93333
1059,Peney-le-Jorat,46.6167,6.73333
1305,Penthalaz,46.6167,6.53333
1166,Perroy,46.4667,6.36667
1197,Prangins,46.4,6.25
1008,Prilly,46.5333,6.58333
1428,Provence,46.8833,6.71667
1070,Puidoux,46.5,6.78333
1009,Pully,46.5167,6.65
1439,Rances,46.7667,6.53333
1180,Rolle,46.4667,6.33333
1323,Romainmôtier,46.7,6.46667
1032,Romanel-sur-Lausanne,46.5667,6.6
1088,Ropraz,46.6167,6.75
1658,Rossinière,46.4667,7.08333
1659,Rougemont,46.4833,7.21667
1463,Rovray,46.7833,6.76667
1414,Rueyres,46.65,6.95
1073,Savigny,46.55,6.73333
1554,Sédeilles,46.75,6.93333
1062,Sottens,46.65,6.73333
1433,Suchy,46.7167,6.6
1295,Tannay,46.35,6.83333
1410,Thierrens,46.7,6.75
1270,Trélex,46.4167,6.2
1552,Trey,46.7667,6.91667
1337,Vallorbe,46.7167,6.38333
1325,Vaulion,46.7,6.38333
1800,Vevey,46.45,6.85
1820,Veytaux,46.4167,6.93333
1584,Villars-le-Grand,46.9,7
1884,Villars-sur-Ollon,46.3,7.05
1184,Vinzel,46.45,6.25
1445,Vuiteboeuf,46.8,6.55
1115,Vullierens,46.5667,6.46667
1169,Yens,46.5167,6.41667
1401,Yverdon,46.7833,6.65
1462,Yvonand,46.8,6.75
1853,Yvorne,46.3333,6.96667
3951,Agarn,46.3,7.66667
3955,Albinen,46.35,7.63333
1994,Aproz,46.2,7.31667
1974,Arbaz,46.2833,7.38333
1957,Ardon,46.2,7.25
1986,Arolla,46.0333,7.48333
3995,Ausserbinn,46.3833,8.15
1966,Ayent,46.2833,7.41667
3961,Ayer,46.1833,7.6
3937,Baltschieder,46.3,7.86667
1996,Basse-Nendaz,46.1833,7.3
3914,Belalp,46.3667,7.96667
3997,Bellwald,46.4333,8.15
3991,Betten,46.3833,8.06667
1996,Beuson,46.1667,7.3
3996,Binn,46.3667,8.18333
3982,Bitsch,46.35,7.96667
3989,Blitzingen,46.45,8.18333
1897,Bouveret,46.3833,6.85
1932,Bovernier,46.0833,7.08333
1967,Bramois,46.2333,7.4
3957,Bratsch,46.3167,7.7
3900,Brig,46.3167,7.98333
3900,Brigerbad,46.3,7.93333
1934,Bruson,46.0667,7.21667
3935,Bürchen,46.2667,7.81667
3966,Chalais,46.2667,7.51667
1955,Chamoson,46.2,7.21667
1874,Champéry,46.1833,6.86667
1938,Champex,46.0333,7.11667
3961,Chandolin,46.25,7.58333
1906,Charrat,46.1167,7.13333
1927,Chemin,46.0833,7.1
3971,Chermignon,46.2667,7.45
3965,Chippis,46.2667,7.53333
1868,Collombey,46.2667,6.95
1903,Collonges,46.1667,7.03333
1964,Conthey,46.2333,7.3
3963,Crans-sur-Sierre,46.3,7.46667
1905,Dorénaz,46.15,7.05
3939,Eggerberg,46.3167,7.86667
3943,Eischoll,46.2833,7.78333
3909,Eisten,46.2,7.9
3926,Embd,46.2167,7.83333
1976,Erde,46.25,7.3
3995,Ernen,46.4,8.15
3957,Erschmatt,46.3167,7.68333
1982,Euseigne,46.1667,7.41667
1902,Evionnaz,46.0167,7.01667
1983,Evolène,46.1167,7.5
3931,Eyholz,46.2833,7.91667
3916,Ferden,46.3833,7.75
3956,Feschel,46.3,7.68333
3984,Fiesch,46.4,8.13333
1925,Finhaut,46.0833,6.96667
1948,Fionnay,46.0333,7.3
1926,Fully,46.1333,7.1
3945,Gampel,46.3167,7.73333
3900,Gamsen,46.3,7.95
3981,Geschinen,46.4833,8.28333
3902,Glis,46.3,7.96667
3901,Gondo,46.2,8.13333
3917,Goppenstein,46.3667,7.75
3983,Goppisberg,46.3833,8.05
3920,Gornergrat,45.9667,7.78333
3925,Grächen,46.1833,7.83333
3993,Grengiols,46.3667,8.08333
3961,Grimentz,46.1833,7.58333
1971,Grimisuat,46.25,7.38333
3979,Grône,46.25,7.45
3946,Gruben,46.2,7.7
3927,Herbriggen,46.15,7.8
1987,Hérémence,46.1833,7.4
3953,Inden,46.35,7.61667
1914,Isérables,46.15,7.25
3801,Jungfraujoch,46.55,7.98333
3917,Kippel,46.4,7.76667
3931,Lalden,46.3,7.9
3994,Lax,46.3833,8.11667
1978,Lens,46.2833,7.45
1984,Les Haudères,46.0833,7.51667
1923,Les Marécottes,46.1167,7
3953,Leuk Stadt,46.3167,7.63333
3954,Leukerbad,46.3833,7.63333
1912,Leytron,46.1833,7.2
1945,Liddes,46,7.18333
1948,Lourtier,46.05,7.26667
1920,Martigny,46.0833,7.08333
1921,Martigny-Croix,46.0833,7.1
1968,Mase,46.1833,7.43333
3972,Miège,46.3167,7.55
1870,Monthey,46.25,6.95
3983,Mörel,46.3667,8.03333
1875,Morgins,46.2333,6.85
3903,Mund,46.3167,7.93333
3904,Naters,46.3333,7.98333
1973,Nax,46.2333,7.43333
3945,Niedergampel,46.3167,7.71667
3942,Niedergesteln,46.3167,7.78333
3989,Niederwald,46.4333,8.18333
3948,Oberems,46.2833,7.7
3981,Obergesteln,46.5167,8.31667
3999,Oberwald,46.5333,8.33333
1937,Orsières,46.0333,7.15
1911,Ovronnaz,46.2,7.16667
1897,Port-Valais,46.3667,6.86667
1943,Praz-de-Fort,45.9833,7.13333
3928,Randa,46.1,7.8
3975,Randogne,46.3167,7.5
3942,Raron,46.3,7.8
1908,Riddes,46.1667,7.23333
3911,Ried-Brig,46.3167,8.01667
3987,Riederalp,46.3833,8.01667
3989,Ritzingen,46.45,8.23333
1913,Saillon,46.1667,7.18333
3970,Salgesch,46.3167,7.58333
1922,Salvan,46.1167,7.01667
1965,Savièse,46.25,7.35
1907,Saxon,46.15,7.18333
1933,Sembrancher,46.0833,7.15
3960,Sierre,46.3,7.53333
3907,Simplon Dorf,46.1833,8.05
1950,Sion,46.2333,7.35
1951,Sion,46.2333,7.35
3933,Staldenried,46.2167,7.88333
3995,Steinhaus,46.4167,8.16667
3952,Susten,46.309,7.64
3929,Täsch,46.0667,7.76667
3912,Termen,46.3333,8.01667
3923,Törbel,46.25,7.85
1929,Trient,46.05,7
1872,Troistorrents,46.2167,6.91667
3946,Turtmann,46.3,7.7
3988,Ulrichen,46.5,8.3
3953,Varen,46.3167,7.61667
1936,Verbier,46.1,7.21667
3967,Vercorin,46.25,7.51667
1961,Vernamiège,46.2167,7.43333
1904,Vernayaz,46.1333,7.06667
1963,Vétroz,46.2167,7.28333
1981,Vex,46.2,7.4
1993,Veysonnaz,46.2,7.33333
1895,Vionnaz,46.3,6.9
3930,Visp,46.1833,7.91667
3932,Visperterminen,46.25,7.9
3961,Vissoie,46.2167,7.58333
1896,Vouvry,46.3333,6.88333
3934,Zeneggen,46.2667,7.85
3920,Zermatt,46.0167,7.75
3961,Zinal,46.1333,7.63333
6340,Baar,47.2,8.51667
6341,Baar,47.2,8.51667
6342,Baar,47.2,8.51667
6343,Buonas,47.1333,8.45
6330,Cham,47.1833,8.46667
6331,Hünenberg,47.1667,8.41667
6313,Menzingen,47.1833,8.58333
6315,Morgarten,47.1,8.61667
6345,Neuheim,47.2,8.58333
6343,Risch,46.4167,7.33333
6343,Rotkreuz,47.15,8.43333
6340,Sihlbrugg,47.1833,8.58333
6312,Steinhausen,47.2,8.46667
6314,Unterägeri,47.1333,8.58333
6318,Walchwil,47.1,8.51667
6300,Zug,47.1667,8.51667
6301,Zug,47.1667,8.51667
6302,Zug,47.1667,8.51667
6303,Zug,47.1667,8.51667
6304,Zug,47.1667,8.51667
6300,Zugerberg,47.1333,8.53333
8134,Adliswil,47.3167,8.51667
8910,Affoltern am Albis,47.2833,8.45
8453,Alten,47.6,8.65
8450,Andelfingen,47.6,8.68333
8184,Bachenbülach,47.5,8.53333
8164,Bachs,47.5167,8.43333
8344,Bäretswil,47.3333,8.85
8303,Bassersdorf,47.45,8.61667
8494,Bauma,47.3667,8.86667
8906,Bonstetten,47.3167,8.46667
8311,Brütten,47.4667,8.66667
8306,Brüttisellen,47.4333,8.63333
8608,Bubikon,47.2667,8.8
8180,Bülach,47.5167,8.53333
8447,Dachsen,47.6667,8.63333
8157,Dielsdorf,47.4833,8.45
8953,Dietikon,47.4167,8.4
8305,Dietlikon,47.4333,8.61667
8474,Dinhard,47.55,8.76667
8600,Dübendorf,47.4,8.61667
8635,Dürnten,47.2667,8.85
8307,Effretikon,47.4333,8.68333
8193,Eglisau,47.5667,8.55
8353,Elgg,47.5,8.86667
8464,Ellikon am Rhein,47.6,8.61667
8548,Ellikon an der Thur,47.5667,8.81667
8424,Embrach,47.5,8.6
8117,Fällanden,47.3667,8.63333
8320,Fehraltorf,47.3833,8.75
8714,Feldbach,47.25,8.78333
8706,Feldmeilen,47.2833,8.61667
8245,Feuerthalen,47.6833,8.63333
8497,Fischenthal,47.3333,8.91667
8416,Flaach,47.5833,8.6
8247,Flurlingen,47.6833,8.63333
8152,Glattbrugg,47.4167,8.58333
8192,Glattfelden,47.55,8.5
8606,Greifensee,47.3333,8.66667
8627,Grüningen,47.2833,8.75
8444,Henggart,47.55,8.68333
8704,Herrliberg,47.2833,8.61667
8442,Hettlingen,47.55,8.7
8340,Hinwil,47.3,8.83333
8816,Hirzel,47.2167,8.6
8335,Hittnau,47.3667,8.83333
8634,Hombrechtikon,47.25,8.76667
8810,Horgen,47.2667,8.58333
8812,Horgen,47.2667,8.58333
8813,Horgen,47.2667,8.58333
8194,Hüntwangen,47.6,8.48333
8825,Hütten,46.7,9.3
8308,Illnau,47.4,8.71667
8926,Kappel am Albis,47.2333,8.51667
8310,Kemptthal,47.45,8.7
8302,Kloten,47.45,8.58333
8934,Knonau,47.2333,8.45
8483,Kollbrunn,47.45,8.78333
8314,Kyburg,47.45,8.75
8315,Lindau,47.45,8.66667
8708,Männedorf,47.25,8.68333
8460,Marthalen,47.6167,8.65
8933,Maschwanden,47.2333,8.41667
8124,Maur,47.3333,8.66667
8706,Meilen,47.2833,8.63333
8932,Mettmenstetten,47.25,8.46667
8617,Mönchaltorf,47.3167,8.71667
8606,Nänikon,47.3667,8.7
8413,Neftenbach,47.5333,8.66667
8166,Niederweningen,47.5167,8.36667
8212,Nohl,47.6667,8.6
8309,Nürensdorf,47.45,8.65
8425,Oberembrach,47.4833,8.61667
8102,Oberengstringen,47.4,8.45
8942,Oberrieden,47.2667,8.56667
8165,Oberweningen,47.5,8.4
8912,Obfelden,47.2667,8.41667
8618,Oetwil am See,47.2667,8.71667
8955,Oetwil an der Limmat,47.4333,8.4
8152,Opfikon,47.4333,8.58333
8475,Ossingen,47.6167,8.71667
8112,Otelfingen,47.4667,8.38333
8913,Ottenbach,47.2833,8.4
8422,Pfungen,47.5167,8.63333
8197,Rafz,47.6167,8.53333
8487,Rämismühle,47.45,8.8
8352,Räterschen,47.5,8.8
8158,Regensberg,47.4833,8.43333
8105,Regensdorf,47.4333,8.46667
8462,Rheinau,47.6333,8.6
8805,Richterswil,47.2167,8.7
8427,Rorbas,47.5333,8.58333
8153,Rümlang,47.45,8.53333
8803,Rüschlikon,47.3,8.55
8332,Russikon,47.3833,8.76667
8493,Saland,47.3833,8.85
8833,Samstagern,47.2,8.68333
8952,Schlieren,47.4,8.45
8472,Seuzach,47.5333,8.73333
8712,Stäfa,47.2333,8.71667
8143,Stallikon,47.3167,8.48333
8499,Sternenberg,47.3833,8.91667
8632,Tann,47.2667,8.85
8800,Thalwil,47.2833,8.56667
8466,Trüllikon,47.6333,8.68333
8488,Turbenthal,47.4333,8.85
8713,Uerikon,47.2333,8.75
8707,Uetikon am See,47.2667,8.66667
8143,Uetliberg,47.35,8.48333
8248,Uhwiesen,47.6667,8.63333
8103,Unterengstringen,47.4167,8.43333
8902,Urdorf,47.3833,8.41667
8610,Uster,47.3333,8.7
8604,Volketswil,47.3833,8.7
8820,Wädenswil,47.2333,8.66667
8304,Wallisellen,47.4167,8.58333
8195,Wasterkingen,47.5833,8.48333
8484,Weisslingen,47.4333,8.75
8342,Wernetshausen,47.3,8.86667
8542,Wiesendangen,47.5167,8.78333
8492,Wila,47.4167,8.83333
8489,Wildberg,47.4167,8.8
8175,Windlach,47.5333,8.46667
8185,Winkel,47.0167,8.31667
8400,Winterthur,47.5,8.75
8401,Winterthur,47.5,8.75
8402,Winterthur,47.5,8.75
8404,Winterthur,47.5,8.75
8405,Winterthur,47.5,8.75
8406,Winterthur,47.5,8.75
8407,Winterthur,47.5,8.75
8408,Winterthur,47.5,8.75
8409,Winterthur,47.5,8.75
8410,Winterthur,47.5,8.75
8411,Winterthur,47.5,8.75
8702,Zollikon,47.3333,8.58333
8126,Zumikon,47.3333,8.61667
8000,Zürich,47.3667,8.55
8001,Zürich,47.3667,8.55
8002,Zürich,47.3667,8.55
8003,Zürich,47.3667,8.55
8004,Zürich,47.3667,8.55
8005,Zürich,47.3667,8.55
8006,Zürich,47.3667,8.55
8008,Zürich,47.3667,8.55
8020,Zürich,47.3667,8.55
8021,Zürich,47.3667,8.55
8022,Zürich,47.3667,8.55
8023,Zürich,47.3667,8.55
8024,Zürich,47.3667,8.55
8025,Zürich,47.3667,8.55
8026,Zürich,47.3667,8.55
8027,Zürich,47.3667,8.55
8028,Zürich,47.3667,8.55
8029,Zürich,47.3667,8.55
8030,Zürich,47.3667,8.55
8031,Zürich,47.3667,8.55
8032,Zürich,47.3667,8.55
8033,Zürich,47.3667,8.55
8034,Zürich,47.3667,8.55
8035,Zürich,47.3667,8.55
8036,Zürich,47.3667,8.55
8037,Zürich,47.3667,8.55
8038,Zürich,47.3667,8.55
8039,Zürich,47.3667,8.55
8040,Zürich,47.3667,8.55
8041,Zürich,47.3667,8.55
8042,Zürich,47.3667,8.55
8043,Zürich,47.3667,8.55
8044,Zürich,47.3667,8.55
8045,Zürich,47.3667,8.55
8046,Zürich,47.3667,8.55
8047,Zürich,47.3667,8.55
8048,Zürich,47.3667,8.55
8049,Zürich,47.3667,8.55
8050,Zürich,47.3667,8.55
8051,Zürich,47.3667,8.55
8052,Zürich,47.3667,8.55
8053,Zürich,47.3667,8.55
8055,Zürich,47.3667,8.55
8056,Zürich,47.3667,8.55
8057,Zürich,47.3667,8.55
8060,Zürich,47.3667,8.55
8061,Zürich,47.3667,8.55
8063,Zürich,47.3667,8.55
8064,Zürich,47.3667,8.55
8065,Zürich,47.3667,8.55
8066,Zürich,47.3667,8.55
8079,Zürich,47.3667,8.55
8087,Zürich,47.3667,8.55
8091,Zürich,47.3667,8.55
4125,Riehen,47.5806,7.46919